{
  "type": "FeatureCollection",
  "features": [
    {
      "type": "Feature",
      "properties": {
        "norad_id": 66909,
        "name": "SILVERSAT",
        "group": "stations",
        "lat": -23.65147524995276,
        "lon": 99.44833822320815,
        "alt_km": 412.78072883197365,
        "timestamp": "2025-12-17T07:00:45.633385+00:00",
        "meta_object_name": "SILVERSAT",
        "meta_object_id": "1998-067XV",
        "meta_epoch": "2025-12-16T14:08:52.774080",
        "meta_mean_motion": 15.52156791,
        "meta_eccentricity": 0.00040754,
        "meta_inclination": 51.6305,
        "meta_ra_of_asc_node": 123.2468,
        "meta_arg_of_pericenter": 249.7085,
        "meta_mean_anomaly": 110.3467,
        "meta_ephemeris_type": 0,
        "meta_classification_type": "U",
        "meta_norad_cat_id": 66909,
        "meta_element_set_no": 999,
        "meta_rev_at_epoch": 221,
        "meta_bstar": 0.00095917161,
        "meta_mean_motion_dot": 0.00059105,
        "meta_mean_motion_ddot": 0,
        "tle_line1": "1 66909U 98067XV  25350.58949970  .00059105  00000+0  95917-3 0  9999",
        "tle_line2": "2 66909  51.6305 123.2468 0004075 249.7085 110.3467 15.52156791  2218"
      },
      "geometry": {
        "type": "Point",
        "coordinates": [
          99.44833822320815,
          -23.65147524995276
        ]
      }
    },
    {
      "type": "Feature",
      "properties": {
        "norad_id": 66910,
        "name": "1998-067XW",
        "group": "stations",
        "lat": -16.338454081248805,
        "lon": 106.30143122506362,
        "alt_km": 413.6169656019956,
        "timestamp": "2025-12-17T07:00:45.633395+00:00",
        "meta_object_name": "1998-067XW",
        "meta_object_id": "1998-067XW",
        "meta_epoch": "2025-12-16T14:06:24.222240",
        "meta_mean_motion": 15.52215974,
        "meta_eccentricity": 0.00046619,
        "meta_inclination": 51.6297,
        "meta_ra_of_asc_node": 123.2359,
        "meta_arg_of_pericenter": 228.2549,
        "meta_mean_anomaly": 131.8043,
        "meta_ephemeris_type": 0,
        "meta_classification_type": "U",
        "meta_norad_cat_id": 66910,
        "meta_element_set_no": 999,
        "meta_rev_at_epoch": 221,
        "meta_bstar": 0.00082001517,
        "meta_mean_motion_dot": 0.00050519,
        "meta_mean_motion_ddot": 0,
        "tle_line1": "1 66910U 98067XW  25350.58778035  .00050519  00000+0  82002-3 0  9994",
        "tle_line2": "2 66910  51.6297 123.2359 0004661 228.2549 131.8043 15.52215974  2214"
      },
      "geometry": {
        "type": "Point",
        "coordinates": [
          106.30143122506362,
          -16.338454081248805
        ]
      }
    },
    {
      "type": "Feature",
      "properties": {
        "norad_id": 66911,
        "name": "1998-067XX",
        "group": "stations",
        "lat": -9.29568487868537,
        "lon": 112.26222265375996,
        "alt_km": 411.9920608919974,
        "timestamp": "2025-12-17T07:00:45.633406+00:00",
        "meta_object_name": "1998-067XX",
        "meta_object_id": "1998-067XX",
        "meta_epoch": "2025-12-16T21:47:43.238976",
        "meta_mean_motion": 15.52613586,
        "meta_eccentricity": 0.00043348,
        "meta_inclination": 51.6301,
        "meta_ra_of_asc_node": 121.625,
        "meta_arg_of_pericenter": 233.1446,
        "meta_mean_anomaly": 126.9147,
        "meta_ephemeris_type": 0,
        "meta_classification_type": "U",
        "meta_norad_cat_id": 66911,
        "meta_element_set_no": 999,
        "meta_rev_at_epoch": 225,
        "meta_bstar": 0.0010270011,
        "meta_mean_motion_dot": 0.00064419,
        "meta_mean_motion_ddot": 0,
        "tle_line1": "1 66911U 98067XX  25350.90813934  .00064419  00000+0  10270-2 0  9990",
        "tle_line2": "2 66911  51.6301 121.6250 0004334 233.1446 126.9147 15.52613586  2256"
      },
      "geometry": {
        "type": "Point",
        "coordinates": [
          112.26222265375996,
          -9.29568487868537
        ]
      }
    },
    {
      "type": "Feature",
      "properties": {
        "norad_id": 66912,
        "name": "1998-067XY",
        "group": "stations",
        "lat": -36.683973093069035,
        "lon": 83.61842044717274,
        "alt_km": 414.8912014753696,
        "timestamp": "2025-12-17T07:00:45.633416+00:00",
        "meta_object_name": "1998-067XY",
        "meta_object_id": "1998-067XY",
        "meta_epoch": "2025-12-16T15:46:04.337760",
        "meta_mean_motion": 15.51521639,
        "meta_eccentricity": 0.00042238,
        "meta_inclination": 51.6299,
        "meta_ra_of_asc_node": 122.9476,
        "meta_arg_of_pericenter": 244.4597,
        "meta_mean_anomaly": 115.5956,
        "meta_ephemeris_type": 0,
        "meta_classification_type": "U",
        "meta_norad_cat_id": 66912,
        "meta_element_set_no": 999,
        "meta_rev_at_epoch": 221,
        "meta_bstar": 0.00074796807,
        "meta_mean_motion_dot": 0.00044864,
        "meta_mean_motion_ddot": 0,
        "tle_line1": "1 66912U 98067XY  25350.65699465  .00044864  00000+0  74797-3 0  9991",
        "tle_line2": "2 66912  51.6299 122.9476 0004223 244.4597 115.5956 15.51521639  2210"
      },
      "geometry": {
        "type": "Point",
        "coordinates": [
          83.61842044717274,
          -36.683973093069035
        ]
      }
    }
  ]
}